$$SOE
2460728.500000000, A.D. 2025-Feb-22 00:00:00.0000, 1.830163142501206E+08, 2.115130047619099E+08, -2.689295449222395E+07,
2460735.500000000, A.D. 2025-Mar-01 00:00:00.0000, 1.724478180845781E+08, 2.207633914599943E+08, -2.649974326406502E+07,
2460742.500000000, A.D. 2025-Mar-08 00:00:00.0000, 1.615036326500673E+08, 2.295329579500736E+08, -2.604879949519588E+07,
2460749.500000000, A.D. 2025-Mar-15 00:00:00.0000, 1.502093915405461E+08, 2.378051583022912E+08, -2.554139462526673E+07,
2460756.500000000, A.D. 2025-Mar-22 00:00:00.0000, 1.385915219010912E+08, 2.455651631944721E+08, -2.497895965794325E+07,
2460763.500000000, A.D. 2025-Mar-29 00:00:00.0000, 1.266770978831894E+08, 2.527998962537829E+08, -2.436307498298314E+07,
2460770.500000000, A.D. 2025-Apr-05 00:00:00.0000, 1.144936950613902E+08, 2.594980560560073E+08, -2.369545939732996E+07,
2460777.500000000, A.D. 2025-Apr-12 00:00:00.0000, 1.020692457217926E+08, 2.656501242069589E+08, -2.297795831194805E+07,
2460784.500000000, A.D. 2025-Apr-19 00:00:00.0000, 8.943189656163506E+07, 2.712483592008793E+08, -2.221253137595201E+07,
2460791.500000000, A.D. 2025-Apr-26 00:00:00.0000, 7.660987065540372E+07, 2.762867766487950E+08, -2.140123973647167E+07,
2460798.500000000, A.D. 2025-May-03 00:00:00.0000, 6.363133521209688E+07, 2.807611168764682E+08, -2.054623311540820E+07,
2460805.500000000, A.D. 2025-May-10 00:00:00.0000, 5.052427636983619E+07, 2.846688010294766E+08, -1.964973686888957E+07,
2460812.500000000, A.D. 2025-May-17 00:00:00.0000, 3.731638207626299E+07, 2.880088768842447E+08, -1.871403918855017E+07,
2460819.500000000, A.D. 2025-May-24 00:00:00.0000, 2.403493402885681E+07, 2.907819556242670E+08, -1.774147860348640E+07,
2460826.500000000, A.D. 2025-May-31 00:00:00.0000, 1.070670968241790E+07, 2.929901412461151E+08, -1.673443191872752E+07,
2460833.500000000, A.D. 2025-Jun-07 00:00:00.0000, -2.642105688428069E+06, 2.946369551641743E+08, -1.569530256226724E+07,
2460840.500000000, A.D. 2025-Jun-14 00:00:00.0000, -1.598599902910487E+07, 2.957272566792693E+08, -1.462650926790600E+07,
2460847.500000000, A.D. 2025-Jun-21 00:00:00.0000, -2.930020040871995E+07, 2.962671573023943E+08, -1.353047554052247E+07,
2460854.500000000, A.D. 2025-Jun-28 00:00:00.0000, -4.256074180526819E+07, 2.962639319160578E+08, -1.240962010050228E+07,
2460861.500000000, A.D. 2025-Jul-05 00:00:00.0000, -5.574450555131763E+07, 2.957259300669548E+08, -1.126634803306466E+07,
2460868.500000000, A.D. 2025-Jul-12 00:00:00.0000, -6.882926400786796E+07, 2.946624876023808E+08, -1.010304262172648E+07,
2460875.500000000, A.D. 2025-Jul-19 00:00:00.0000, -8.179371075283532E+07, 2.930838389856935E+08, -8.922057938840821E+06,
2460882.500000000, A.D. 2025-Jul-26 00:00:00.0000, -9.461748362239920E+07, 2.910010310362176E+08, -7.725712214153469E+06,
2460889.500000000, A.D. 2025-Aug-02 00:00:00.0000, -1.072811801398750E+08, 2.884258388050269E+08, -6.516281972301304E+06,
2460896.500000000, A.D. 2025-Aug-09 00:00:00.0000, -1.197663659431707E+08, 2.853706841508750E+08, -5.295996920351028E+06,
2460903.500000000, A.D. 2025-Aug-16 00:00:00.0000, -1.320555767869382E+08, 2.818485574253606E+08, -4.067035567975491E+06,
2460910.500000000, A.D. 2025-Aug-23 00:00:00.0000, -1.441323144846685E+08, 2.778729426556370E+08, -2.831521570254698E+06,
2460917.500000000, A.D. 2025-Aug-30 00:00:00.0000, -1.559810371138138E+08, 2.734577472182993E+08, -1.591520725050911E+06,
2460924.500000000, A.D. 2025-Sep-06 00:00:00.0000, -1.675871455396369E+08, 2.686172372050113E+08, -3.490383707013428E+05,
2460931.500000000, A.D. 2025-Sep-13 00:00:00.0000, -1.789369685346258E+08, 2.633659761269391E+08, 8.939828103611916E+05,
2460938.500000000, A.D. 2025-Sep-20 00:00:00.0000, -1.900177437842930E+08, 2.577187653630351E+08, 2.135664194363326E+06,
2460945.500000000, A.D. 2025-Sep-27 00:00:00.0000, -2.008175942601500E+08, 2.516905894540970E+08, 3.374192029302865E+06,
2460952.500000000, A.D. 2025-Oct-04 00:00:00.0000, -2.113255024738618E+08, 2.452965667368473E+08, 4.607817931778342E+06,
2460959.500000000, A.D. 2025-Oct-11 00:00:00.0000, -2.215312834317348E+08, 2.385519042766814E+08, 5.834859068832844E+06,
2460966.500000000, A.D. 2025-Oct-18 00:00:00.0000, -2.314255564189029E+08, 2.314718566834551E+08, 7.053698019050956E+06,
2460973.500000000, A.D. 2025-Oct-25 00:00:00.0000, -2.409997158587373E+08, 2.240716886616008E+08, 8.262782340801314E+06,
2460980.500000000, A.D. 2025-Nov-01 00:00:00.0000, -2.502459015563207E+08, 2.163666411435685E+08, 9.460623882194564E+06,
2460987.500000000, A.D. 2025-Nov-08 00:00:00.0000, -2.591569685945698E+08, 2.083719008006790E+08, 1.064579786153154E+07,
2460994.500000000, A.D. 2025-Nov-15 00:00:00.0000, -2.677264569934679E+08, 2.001025726858482E+08, 1.181694173218393E+07,
2461001.500000000, A.D. 2025-Nov-22 00:00:00.0000, -2.759485609497706E+08, 1.915736560293209E+08, 1.297275384287973E+07,
2461008.500000000, A.D. 2025-Nov-29 00:00:00.0000, -2.838180979994918E+08, 1.828000241165591E+08, 1.411199202753443E+07,
2461015.500000000, A.D. 2025-Dec-06 00:00:00.0000, -2.913304805455912E+08, 1.737964079073861E+08, 1.523347234704497E+07,
2461022.500000000, A.D. 2025-Dec-13 00:00:00.0000, -2.984816894562702E+08, 1.645773798295198E+08, 1.633606769011137E+07,
2461029.500000000, A.D. 2025-Dec-20 00:00:00.0000, -3.052682463453892E+08, 1.551573385746555E+08, 1.741870601661520E+07,
2461036.500000000, A.D. 2025-Dec-27 00:00:00.0000, -3.116871856958939E+08, 1.455504972921901E+08, 1.848036857163570E+07,
2461043.500000000, A.D. 2026-Jan-03 00:00:00.0000, -3.177360283641123E+08, 1.357708743839960E+08, 1.952008816914399E+07,
2461050.500000000, A.D. 2026-Jan-10 00:00:00.0000, -3.234127564126164E+08, 1.258322860539256E+08, 2.053694749379565E+07,
2461057.500000000, A.D. 2026-Jan-17 00:00:00.0000, -3.287157890774693E+08, 1.157483403593670E+08, 2.153007740438873E+07,
2461064.500000000, A.D. 2026-Jan-24 00:00:00.0000, -3.336439598178984E+08, 1.055324326342997E+08, 2.249865524444702E+07,
2461071.500000000, A.D. 2026-Jan-31 00:00:00.0000, -3.381964944407223E+08, 9.519774213301951E+07, 2.344190316647893E+07,
2461078.500000000, A.D. 2026-Feb-07 00:00:00.0000, -3.423729902445825E+08, 8.475722970379779E+07, 2.435908646763108E+07,
2461085.500000000, A.D. 2026-Feb-14 00:00:00.0000, -3.461733959292186E+08, 7.422363635360663E+07, 2.524951191916708E+07,
2461092.500000000, A.D. 2026-Feb-21 00:00:00.0000, -3.495979918729117E+08, 6.360948316669724E+07, 2.611252610716252E+07,
2461099.500000000, A.D. 2026-Feb-28 00:00:00.0000, -3.526473718473945E+08, 5.292707362449571E+07, 2.694751398279685E+07,
2461106.500000000, A.D. 2026-Mar-07 00:00:00.0000, -3.553224282108038E+08, 4.218849627896155E+07, 2.775389765530211E+07,
2461113.500000000, A.D. 2026-Mar-14 00:00:00.0000, -3.576243377816421E+08, 3.140562535952626E+07, 2.853113498526757E+07,
2461120.500000000, A.D. 2026-Mar-21 00:00:00.0000, -3.595545465781853E+08, 2.059012213186954E+07, 2.927871805342415E+07,
2461127.500000000, A.D. 2026-Mar-28 00:00:00.0000, -3.611147553958604E+08, 9.753437957263621E+06, 2.999617177381968E+07,
2461134.500000000, A.D. 2026-Apr-04 00:00:00.0000, -3.623069067973085E+08, -1.093181988908796E+06, 3.068305262843936E+07,
2461141.500000000, A.D. 2026-Apr-11 00:00:00.0000, -3.631331732157336E+08, -1.193869476511059E+07, 3.133894747003739E+07,
2461148.500000000, A.D. 2026-Apr-18 00:00:00.0000, -3.635959459848829E+08, -2.277225554239726E+07, 3.196347237951081E+07,
2461155.500000000, A.D. 2026-Apr-25 00:00:00.0000, -3.636978252210378E+08, -3.358321335088899E+07, 3.255627157603677E+07,
2461162.500000000, A.D. 2026-May-02 00:00:00.0000, -3.634416104967909E+08, -4.436110676976336E+07, 3.311701637550174E+07,
2461169.500000000, A.D. 2026-May-09 00:00:00.0000, -3.628302921517607E+08, -5.509565966847845E+07, 3.364540418062350E+07,
2461176.500000000, A.D. 2026-May-16 00:00:00.0000, -3.618670428315699E+08, -6.577677689856149E+07, 3.414115747916867E+07,
2461183.500000000, A.D. 2026-May-23 00:00:00.0000, -3.605552091723531E+08, -7.639453894820547E+07, 3.460402292842028E+07,
2461190.500000000, A.D. 2026-May-30 00:00:00.0000, -3.588983056793397E+08, -8.693919527282813E+07, 3.503377074170782E+07,
2461197.500000000, A.D. 2026-Jun-06 00:00:00.0000, -3.569000110914074E+08, -9.740115960623007E+07, 3.543019413784009E+07,
2461204.500000000, A.D. 2026-Jun-13 00:00:00.0000, -3.545641635439986E+08, -1.077710070791149E+08, 3.579310853323729E+07,
2461211.500000000, A.D. 2026-Jun-20 00:00:00.0000, -3.518947550059779E+08, -1.180394702376928E+08, 3.612235076115119E+07,
2461218.500000000, A.D. 2026-Jun-27 00:00:00.0000, -3.488959266586229E+08, -1.281974343193376E+08, 3.641777844407394E+07,
2461225.500000000, A.D. 2026-Jul-04 00:00:00.0000, -3.455719651873047E+08, -1.382359325790189E+08, 3.667926945355226E+07,
2461232.500000000, A.D. 2026-Jul-11 00:00:00.0000, -3.419272997055001E+08, -1.481461418185067E+08, 3.690672142116758E+07,
2461239.500000000, A.D. 2026-Jul-18 00:00:00.0000, -3.379664991958750E+08, -1.579193781136343E+08, 3.710005129280689E+07,
2461246.500000000, A.D. 2026-Jul-25 00:00:00.0000, -3.336942704268024E+08, -1.675470927575927E+08, 3.725919492361644E+07,
2461253.500000000, A.D. 2026-Aug-01 00:00:00.0000, -3.291154562833683E+08, -1.770208684859827E+08, 3.738410670533390E+07,
2461260.500000000, A.D. 2026-Aug-08 00:00:00.0000, -3.242350342859367E+08, -1.863324160329896E+08, 3.747475920342177E+07,
2461267.500000000, A.D. 2026-Aug-15 00:00:00.0000, -3.190581148674881E+08, -1.954735705790353E+08, 3.753114280241184E+07,
2461274.500000000, A.D. 2026-Aug-22 00:00:00.0000, -3.135899401548671E+08, -2.044362868785132E+08, 3.755326552827362E+07,
2461281.500000000, A.D. 2026-Aug-29 00:00:00.0000, -3.078358855264153E+08, -2.132126344515689E+08, 3.754115314451288E+07,
2461288.500000000, A.D. 2026-Sep-05 00:00:00.0000, -3.018014617987760E+08, -2.217947957218876E+08, 3.749484909130482E+07,
2461295.500000000, A.D. 2026-Sep-12 00:00:00.0000, -2.954923155775049E+08, -2.301750646180537E+08, 3.741441424649195E+07,
$$EOE